{
  "type": "Feature",
  "properties": { "name": "Jammu and Kashmir", "goiClaim": true },
  "geometry": {
    "type": "MultiPolygon",
    "coordinates": [
      [
        [
          [73.3903158, 34.374897],
          [73.4061355, 34.3462368],
          [73.429417, 34.3438982],
          [73.4572906, 34.2734618],
          [73.4823041, 34.2865753],
          [73.4729547, 34.2532313],
          [73.4968165, 34.2088658],
          [73.4908513, 34.1264472],
          [73.5136885, 34.0013148],
          [73.5938498, 33.8882665],
          [73.5596079, 33.7813447],
          [73.6067547, 33.7259531],
          [73.5670237, 33.6668826],
          [73.578186, 33.6394651],
          [73.5677018, 33.6192939],
          [73.6094195, 33.6040975],
          [73.6397607, 33.5251937],
          [73.6024265, 33.4973447],
          [73.6314493, 33.4486554],
          [73.595894, 33.4380221],
          [73.5862409, 33.4257503],
          [73.6018219, 33.4185619],
          [73.5663283, 33.3693265],
          [73.5852582, 33.3560482],
          [73.57164, 33.3390923],
          [73.5796136, 33.3270287],
          [73.6017272, 33.3313739],
          [73.5984654, 33.3018866],
          [73.6366118, 33.210103],
          [73.6749603, 33.1998843],
          [73.6629287, 33.1586631],
          [73.6303573, 33.1384255],
          [73.6376529, 33.1000563],
          [73.6553984, 33.0780875],
          [73.7497258, 33.0531314],
          [73.7619337, 32.9900899],
          [73.784266, 32.9666077],
          [73.761683, 32.9413959],
          [73.8913106, 32.9245837],
          [74.008136, 32.9431785],
          [74.0576108, 32.9363467],
          [74.0799088, 32.9101082],
          [74.314689, 32.8204231],
          [74.3275444, 32.7829551],
          [74.3466306, 32.7760915],
          [74.3880819, 32.8022216],
          [74.408611, 32.771667],
          [74.4752242, 32.775991],
          [74.511169, 32.7644091],
          [74.5142968, 32.7442201],
          [74.5661337, 32.7600679],
          [74.6376307, 32.7514702],
          [74.6320336, 32.7760044],
          [74.6586371, 32.7874585],
          [74.632886, 32.8089145],
          [74.7052513, 32.8419547],
          [74.6544721, 32.7290994],
          [74.6662354, 32.6756038],
          [74.6950998, 32.6605712],
          [74.638435, 32.6133251],
          [74.6590573, 32.5967445],
          [74.651679, 32.5630341],
          [74.673099, 32.5679814],
          [74.6618844, 32.545845],
          [74.6902298, 32.5342565],
          [74.6814161, 32.4927543],
          [74.7103774, 32.4928617],
          [74.714017, 32.4771903],
          [74.812594, 32.4800549],
          [74.8200292, 32.499531],
          [74.877163, 32.4938754],
          [74.8763793, 32.4772933],
          [74.9392494, 32.4712834],
          [74.9516442, 32.4464738],
          [75.0155009, 32.4643859],
          [75.0265301, 32.4975874],
          [75.0852207, 32.4690859],
          [75.1088465, 32.4739344],
          [75.1329117, 32.4088308],
          [75.1917727, 32.4261495],
          [75.1928197, 32.4010051],
          [75.2569423, 32.3894015],
          [75.2582499, 32.372343],
          [75.2896896, 32.3701123],
          [75.3271449, 32.3278159],
          [75.3481006, 32.3449624],
          [75.4310131, 32.3155535],
          [75.489335, 32.3455063],
          [75.4828334, 32.3199962],
          [75.5110931, 32.3086803],
          [75.5090761, 32.2840488],
          [75.5337095, 32.2773729],
          [75.538001, 32.3337403],
          [75.5540943, 32.3519778],
          [75.5964946, 32.3778232],
          [75.7214641, 32.4052553],
          [75.7269573, 32.432317],
          [75.7418918, 32.4317736],
          [75.7281589, 32.4531058],
          [75.8236024, 32.4953314],
          [75.8720557, 32.5461136],
          [75.8630664, 32.5605192],
          [75.8783841, 32.586706],
          [75.9057426, 32.5983124],
          [75.9181007, 32.6338824],
          [75.9316254, 32.6320555],
          [75.9333785, 32.6474702],
          [75.8840709, 32.6519146],
          [75.9224924, 32.745886],
          [75.8822342, 32.7852014],
          [75.8794138, 32.8115266],
          [75.7967592, 32.8842339],
          [75.8325962, 32.9241287],
          [75.9160529, 32.9068013],
          [75.9498792, 32.8733889],
          [76.0937279, 32.9640677],
          [76.1067155, 33.004438],
          [76.242565, 33.0200274],
          [76.2733801, 33.0372144],
          [76.2896218, 33.0596366],
          [76.2860937, 33.1018665],
          [76.4039156, 33.1849104],
          [76.4787858, 33.1790786],
          [76.5608462, 33.2089787],
          [76.5958606, 33.205763],
          [76.6121531, 33.1724823],
          [76.6435709, 33.1617278],
          [76.7473655, 33.1790266],
          [76.7803165, 33.2347807],
          [76.7370128, 33.2610827],
          [76.7165216, 33.3329078],
          [76.6913405, 33.3251321],
          [76.6681938, 33.3417946],
          [76.6268876, 33.4367444],
          [76.5825773, 33.424132],
          [76.5699369, 33.4647973],
          [76.5504965, 33.4642854],
          [76.500848, 33.5176653],
          [76.4592736, 33.5329889],
          [76.4477069, 33.5642465],
          [76.4283067, 33.5379915],
          [76.3981899, 33.5450935],
          [76.381073, 33.551946],
          [76.3587141, 33.6036825],
          [76.3116359, 33.6097229],
          [76.3027954, 33.5673594],
          [76.2211704, 33.5521606],
          [76.2052059, 33.5728303],
          [76.2390661, 33.6027531],
          [76.229453, 33.6301287],
          [76.2841701, 33.6616034],
          [76.2658023, 33.6801755],
          [76.2640282, 33.746983],
          [76.2121841, 33.7609043],
          [76.192563, 33.7934176],
          [76.1636399, 33.7997561],
          [76.1552619, 33.846527],
          [76.122497, 33.8877428],
          [76.0321161, 33.9184633],
          [76.0468048, 33.9342843],
          [76.0243674, 33.9820894],
          [75.9778527, 33.9712669],
          [75.9669229, 33.9545156],
          [75.8929703, 33.9689526],
          [75.8316963, 33.9561091],
          [75.8224365, 33.965934],
          [75.8420285, 34.0061275],
          [75.7376775, 34.0597789],
          [75.7437536, 34.0728584],
          [75.6728685, 34.1441176],
          [75.6929921, 34.1582322],
          [75.689829, 34.2017748],
          [75.6483738, 34.2121877],
          [75.5947001, 34.1976303],
          [75.5802941, 34.2137896],
          [75.4955896, 34.2335145],
          [75.4694874, 34.2800518],
          [75.4031901, 34.2848517],
          [75.4008326, 34.3154011],
          [75.3764345, 34.3413955],
          [75.3850483, 34.3661426],
          [75.3659331, 34.3955655],
          [75.3786713, 34.4069409],
          [75.3269726, 34.4393844],
          [75.3529959, 34.469134],
          [75.3427933, 34.4887433],
          [75.3664001, 34.5380975],
          [75.2861067, 34.5955278],
          [75.248544, 34.6009539],
          [75.2662228, 34.6383125],
          [75.0867461, 34.6549567],
          [75.0251774, 34.6289837],
          [74.9961063, 34.6522781],
          [74.8728936, 34.6815788],
          [74.8862454, 34.7203101],
          [74.9353407, 34.7397788],
          [74.9240109, 34.7681277],
          [74.8387339, 34.7867199],
          [74.8028138, 34.7739424],
          [74.7957105, 34.821806],
          [74.7453462, 34.8287394],
          [74.662502, 34.9032943],
          [74.6031587, 34.9165914],
          [74.5771306, 34.8993817],
          [74.564897, 34.9675065],
          [74.585116, 35.0026982],
          [74.5335946, 35.0296332],
          [74.5394096, 35.0635201],
          [74.5117053, 35.0829163],
          [74.5152458, 35.0948557],
          [74.463797, 35.1060292],
          [74.4475321, 35.1324441],
          [74.3726856, 35.0606054],
          [74.2937974, 35.0651243],
          [74.2584022, 35.036665],
          [74.2347461, 35.0495124],
          [74.2368134, 35.0667393],
          [74.2140253, 35.0645966],
          [74.206514, 35.0904138],
          [74.1611975, 35.0773209],
          [74.1164649, 35.1170877],
          [74.0807259, 35.090148],
          [74.0734633, 35.0585737],
          [74.1085264, 35.0145633],
          [74.0639429, 34.9978361],
          [74.05165, 34.955552],
          [73.983048, 34.867493],
          [73.907761, 34.82666],
          [73.833879, 34.826942],
          [73.726379, 34.775267],
          [73.703599, 34.724709],
          [73.663604, 34.694436],
          [73.674423, 34.645828],
          [73.641098, 34.566941],
          [73.581665, 34.587768],
          [73.44832, 34.56305],
          [73.3903426, 34.3753021],
          [73.3903158, 34.374897]
        ]
      ]
    ]
  }
}
