{
  "type": "Feature",
  "properties": { "name": "Ladakh", "goiClaim": true },
  "geometry": {
    "type": "MultiPolygon",
    "coordinates": [
      [
        [
          [72.5058342, 35.9183553],
          [72.525411, 35.8806248],
          [72.5700962, 35.8754977],
          [72.5813185, 35.8566305],
          [72.6723094, 35.8380907],
          [72.6978869, 35.8596361],
          [72.7231641, 35.8540536],
          [72.7419511, 35.8137299],
          [72.8019661, 35.8262421],
          [72.8243398, 35.8838054],
          [72.8804001, 35.8538415],
          [72.9003568, 35.8131889],
          [72.9642258, 35.836091],
          [73.0062998, 35.8248856],
          [73.0861884, 35.8728289],
          [73.1384984, 35.8382874],
          [73.1754271, 35.853211],
          [73.2015706, 35.8174149],
          [73.1620777, 35.7602297],
          [73.1242427, 35.7572649],
          [73.1206702, 35.7231807],
          [73.2365274, 35.657824],
          [73.2806468, 35.6708959],
          [73.3320331, 35.658095],
          [73.3612578, 35.5967815],
          [73.39868, 35.5838864],
          [73.4018738, 35.5161455],
          [73.4744614, 35.5401437],
          [73.5051674, 35.5312559],
          [73.5254234, 35.5435135],
          [73.5560006, 35.526541],
          [73.6181635, 35.5475989],
          [73.6658639, 35.5251614],
          [73.7280482, 35.5319893],
          [73.7401718, 35.5183328],
          [73.7897801, 35.5178977],
          [73.7864962, 35.4883981],
          [73.7066727, 35.3959331],
          [73.68409, 35.3268868],
          [73.7457444, 35.2176668],
          [73.8083114, 35.238663],
          [73.8668576, 35.2026079],
          [73.9202381, 35.2109965],
          [73.9535739, 35.1661731],
          [74.001522, 35.1820999],
          [74.0311374, 35.1448847],
          [74.1070558, 35.1471056],
          [74.1056396, 35.1243065],
          [74.131615, 35.1127004],
          [74.1429773, 35.0868989],
          [74.164223, 35.076759],
          [74.206514, 35.0904138],
          [74.2463644, 35.0379299],
          [74.2937974, 35.0651243],
          [74.3726856, 35.0606054],
          [74.4475321, 35.1324441],
          [74.463797, 35.1060292],
          [74.5152458, 35.0948557],
          [74.5117053, 35.0829163],
          [74.5394096, 35.0635201],
          [74.5335946, 35.0296332],
          [74.585116, 35.0026982],
          [74.564897, 34.9675065],
          [74.5771306, 34.8993817],
          [74.6031587, 34.9165914],
          [74.662502, 34.9032943],
          [74.7453462, 34.8287394],
          [74.7957105, 34.821806],
          [74.8028138, 34.7739424],
          [74.8387339, 34.7867199],
          [74.9240109, 34.7681277],
          [74.9353407, 34.7397788],
          [74.8862454, 34.7203101],
          [74.8728936, 34.6815788],
          [74.9961063, 34.6522781],
          [75.0251774, 34.6289837],
          [75.0867461, 34.6549567],
          [75.2662228, 34.6383125],
          [75.248544, 34.6009539],
          [75.2861067, 34.5955278],
          [75.3664001, 34.5380975],
          [75.3427933, 34.4887433],
          [75.3529959, 34.469134],
          [75.3269726, 34.4393844],
          [75.3786713, 34.4069409],
          [75.3659331, 34.3955655],
          [75.3850483, 34.3661426],
          [75.3764345, 34.3413955],
          [75.4008326, 34.3154011],
          [75.4031901, 34.2848517],
          [75.4694874, 34.2800518],
          [75.4955896, 34.2335145],
          [75.5802941, 34.2137896],
          [75.5947001, 34.1976303],
          [75.6483738, 34.2121877],
          [75.689829, 34.2017748],
          [75.6929921, 34.1582322],
          [75.6728685, 34.1441176],
          [75.7437536, 34.0728584],
          [75.7376775, 34.0597789],
          [75.8420285, 34.0061275],
          [75.8224365, 33.965934],
          [75.8316963, 33.9561091],
          [75.8929703, 33.9689526],
          [75.9669229, 33.9545156],
          [75.9778527, 33.9712669],
          [76.0243674, 33.9820894],
          [76.0468048, 33.9342843],
          [76.0321161, 33.9184633],
          [76.122497, 33.8877428],
          [76.1552619, 33.846527],
          [76.1636399, 33.7997561],
          [76.192563, 33.7934176],
          [76.2121841, 33.7609043],
          [76.2640282, 33.746983],
          [76.2658023, 33.6801755],
          [76.2841701, 33.6616034],
          [76.229453, 33.6301287],
          [76.2390661, 33.6027531],
          [76.2052059, 33.5728303],
          [76.2211704, 33.5521606],
          [76.3027954, 33.5673594],
          [76.3051986, 33.6075427],
          [76.3384151, 33.6097229],
          [76.380381, 33.5785019],
          [76.381073, 33.551946],
          [76.4255333, 33.5374958],
          [76.4516389, 33.5613816],
          [76.4592736, 33.5329889],
          [76.500848, 33.5176653],
          [76.5504965, 33.4642854],
          [76.5699369, 33.4647973],
          [76.5825773, 33.424132],
          [76.6268876, 33.4367444],
          [76.6681938, 33.3417946],
          [76.6913405, 33.3251321],
          [76.7165216, 33.3329078],
          [76.7370128, 33.2610827],
          [76.7529332, 33.2487351],
          [76.7988501, 33.2556686],
          [76.8201703, 33.2331519],
          [76.8433457, 33.245935],
          [76.834314, 33.2050534],
          [76.8173802, 33.1945216],
          [76.8175084, 33.1593229],
          [76.8550964, 33.1133588],
          [76.8910599, 33.1180965],
          [76.9288293, 33.0319174],
          [76.9707226, 33.0006166],
          [77.012628, 32.9883032],
          [77.0482211, 32.9981478],
          [77.0943834, 32.9708049],
          [77.1159068, 32.9845978],
          [77.1486599, 32.9783797],
          [77.1483998, 32.9560251],
          [77.1624938, 32.9500438],
          [77.1572483, 32.912263],
          [77.187747, 32.9281129],
          [77.2541313, 32.864364],
          [77.2740541, 32.8738757],
          [77.302475, 32.8492246],
          [77.3223574, 32.8518845],
          [77.349839, 32.8158968],
          [77.3734991, 32.8236179],
          [77.3746957, 32.8558945],
          [77.4045103, 32.8843746],
          [77.4697701, 32.8589409],
          [77.4973374, 32.884083],
          [77.5392127, 32.8872908],
          [77.6012437, 32.9425505],
          [77.6739328, 32.9609211],
          [77.6829835, 32.9891793],
          [77.7136698, 32.9826377],
          [77.8124775, 32.9054068],
          [77.7839328, 32.8832726],
          [77.7869313, 32.8595486],
          [77.8665816, 32.8283536],
          [77.8833631, 32.7878881],
          [77.9253884, 32.7717115],
          [77.9342875, 32.7265089],
          [77.9191954, 32.6904396],
          [78.0160025, 32.6201247],
          [78.0467324, 32.6453657],
          [78.0602736, 32.6291943],
          [78.0975938, 32.629431],
          [78.0934491, 32.6465926],
          [78.110517, 32.6621188],
          [78.1470254, 32.6538226],
          [78.1427, 32.6817242],
          [78.1761372, 32.681443],
          [78.1931777, 32.6626015],
          [78.245013, 32.6719621],
          [78.2608777, 32.7034164],
          [78.3068549, 32.7084357],
          [78.3123793, 32.743562],
          [78.387539, 32.7551357],
          [78.3781063, 32.6588715],
          [78.4092844, 32.6239905],
          [78.3118158, 32.5669892],
          [78.2842475, 32.4691781],
          [78.31931, 32.4436969],
          [78.3954969, 32.5176379],
          [78.3929418, 32.5395644],
          [78.416068, 32.567467],
          [78.500948, 32.583603],
          [78.52513, 32.6202087],
          [78.5764507, 32.6240103],
          [78.5982079, 32.6002921],
          [78.630722, 32.604405],
          [78.6341099, 32.6453678],
          [78.7104797, 32.6681214],
          [78.7394997, 32.6957352],
          [78.742145, 32.655287],
          [78.78136, 32.616313],
          [78.757475, 32.567181],
          [78.780829, 32.515658],
          [78.779367, 32.479016],
          [78.838598, 32.41271],
          [78.892347, 32.400518],
          [78.907529, 32.372514],
          [78.968287, 32.33574],
          [79.013599, 32.381218],
          [79.060389, 32.387138],
          [79.100153, 32.370628],
          [79.105435, 32.407469],
          [79.12643, 32.421654],
          [79.117527, 32.454475],
          [79.131546, 32.480951],
          [79.183966, 32.497826],
          [79.188294, 32.515877],
          [79.248154, 32.5167],
          [79.276039, 32.556002],
          [79.293452, 32.539559],
          [79.331177, 32.565447],
          [79.350972, 32.528539],
          [79.4134632, 32.5202315],
          [79.4003522, 32.6102956],
          [79.460728, 32.7098224],
          [79.4152077, 32.7356871],
          [79.4069967, 32.7854596],
          [79.3024018, 32.8869489],
          [79.3075212, 32.9269089],
          [79.2838411, 32.9526512],
          [79.2353974, 32.9750777],
          [79.2153275, 32.9613436],
          [79.1749633, 32.9857514],
          [79.1431785, 33.1056724],
          [79.16518, 33.171496],
          [79.071653, 33.224247],
          [79.079942, 33.244917],
          [79.035201, 33.272681],
          [79.026725, 33.320346],
          [78.962535, 33.339475],
          [78.936447, 33.387175],
          [78.9135169, 33.5546389],
          [78.885111, 33.5762188],
          [78.9077147, 33.621128],
          [79.0035273, 33.6074032],
          [79.0851428, 33.6195384],
          [79.0903822, 33.6371889],
          [79.0639656, 33.6664138],
          [79.0118554, 33.6852115],
          [79.0282783, 33.7536762],
          [78.9652226, 33.8212529],
          [78.9371449, 33.9126242],
          [78.8871763, 33.9725866],
          [78.9116847, 34.0097062],
          [78.9952038, 34.036832],
          [79.029468, 34.01042],
          [79.0994242, 33.9899567],
          [79.1389232, 33.9944776],
          [79.1896058, 34.0251727],
          [79.2252977, 34.010658],
          [79.2488543, 34.0239829],
          [79.3161931, 34.014941],
          [79.3665102, 33.9943369],
          [79.4032813, 34.0023299],
          [79.4304072, 34.0613405],
          [79.4161304, 34.1001257],
          [79.4856107, 34.1255859],
          [79.4905886, 34.1908996],
          [79.6073639, 34.2382215],
          [79.6028087, 34.3065503],
          [79.5747215, 34.3190361],
          [79.5347804, 34.4007544],
          [79.5305915, 34.4426436],
          [79.5088509, 34.453679],
          [79.5381633, 34.4788814],
          [79.5611169, 34.4584093],
          [79.600515, 34.4662623],
          [79.6233578, 34.449844],
          [79.6735645, 34.454603],
          [79.70188, 34.4860118],
          [79.7216296, 34.4717351],
          [79.7967052, 34.4822221],
          [79.8114542, 34.5340769],
          [79.7882498, 34.5640188],
          [79.8018136, 34.5892643],
          [79.7865473, 34.6273539],
          [79.8984776, 34.69619],
          [79.9515387, 34.6737465],
          [79.9721896, 34.6997035],
          [80.0741464, 34.7058061],
          [80.0669116, 34.7622563],
          [80.0989921, 34.7745363],
          [80.13685, 34.8689383],
          [80.2050511, 34.8912364],
          [80.1862573, 34.9464874],
          [80.2335754, 34.9895891],
          [80.2160831, 34.9927029],
          [80.1936721, 35.1184343],
          [80.2349567, 35.148828],
          [80.2223395, 35.1780178],
          [80.2563285, 35.2041814],
          [80.2838801, 35.203971],
          [80.2745397, 35.2167348],
          [80.2942892, 35.2678932],
          [80.2662115, 35.2964467],
          [80.2858752, 35.3542535],
          [80.3467536, 35.3910228],
          [80.3769176, 35.3923438],
          [80.429158, 35.449781],
          [80.403017, 35.499203],
          [80.35352, 35.506322],
          [80.338058, 35.531796],
          [80.302243, 35.532776],
          [80.298614, 35.55565],
          [80.278188, 35.552709],
          [80.263387, 35.569068],
          [80.224892, 35.554819],
          [80.207126, 35.575499],
          [80.1661973, 35.5527572],
          [80.1825866, 35.5088458],
          [80.1099998, 35.4783793],
          [80.0809961, 35.4504084],
          [80.0879898, 35.4324557],
          [80.0549152, 35.4234138],
          [79.9663197, 35.5535653],
          [79.9653212, 35.5747085],
          [79.9953187, 35.5841024],
          [79.99895, 35.6024167],
          [79.9545853, 35.6162313],
          [79.9541906, 35.633914],
          [79.8457333, 35.5745558],
          [79.816842, 35.6269739],
          [79.7042776, 35.6390451],
          [79.6982418, 35.6634505],
          [79.679405, 35.6706898],
          [79.6786294, 35.7002396],
          [79.6341109, 35.7415782],
          [79.6385822, 35.77773],
          [79.5925417, 35.7888788],
          [79.5884125, 35.8149615],
          [79.5719086, 35.8126599],
          [79.56427, 35.8297913],
          [79.5884336, 35.8769776],
          [79.5721293, 35.8965298],
          [79.5173407, 35.8503163],
          [79.4888959, 35.8492206],
          [79.4564592, 35.8719631],
          [79.468368, 35.9003393],
          [79.4396228, 35.9341975],
          [79.4417273, 35.9683213],
          [79.3434392, 35.9878727],
          [79.3383831, 35.9634717],
          [79.2695767, 35.9274197],
          [79.077666, 35.9469845],
          [79.0284243, 35.91423],
          [79.0114975, 35.9311568],
          [78.8558586, 35.9742433],
          [78.8008537, 35.8701812],
          [78.6760474, 35.8531542],
          [78.6548267, 35.8212671],
          [78.5813319, 35.7999315],
          [78.5355862, 35.7634995],
          [78.462723, 35.7644065],
          [78.4405012, 35.7807327],
          [78.4076214, 35.7308893],
          [78.2436324, 35.7252899],
          [78.2083065, 35.6676586],
          [78.1817008, 35.6673563],
          [78.1974223, 35.6398436],
          [78.180038, 35.6344016],
          [78.1812591, 35.6007931],
          [78.1617348, 35.5929304],
          [78.1571897, 35.5509472],
          [78.1030736, 35.5560904],
          [78.0905157, 35.5334018],
          [78.04037, 35.5868456],
          [78.0224262, 35.5642328],
          [77.9776227, 35.5721854],
          [77.9506423, 35.5520644],
          [77.9378503, 35.559317],
          [77.9109904, 35.4620991],
          [77.8145556, 35.522088],
          [77.7799063, 35.4981911],
          [77.7428959, 35.4966941],
          [77.7342433, 35.4684271],
          [77.6903349, 35.4515989],
          [77.6523853, 35.4869248],
          [77.6295214, 35.4622066],
          [77.6048052, 35.4730055],
          [77.5943112, 35.4631289],
          [77.5584395, 35.4878445],
          [77.5047756, 35.4860548],
          [77.4450559, 35.461418],
          [77.3937599, 35.4702891],
          [77.3029393, 35.5462526],
          [77.1912534, 35.5204854],
          [77.0938846, 35.5648084],
          [77.064957, 35.5968094],
          [76.9947443, 35.6123716],
          [76.9648174, 35.5937996],
          [76.8994697, 35.617946],
          [76.8481551, 35.6728459],
          [76.7640726, 35.6610509],
          [76.7586798, 35.681085],
          [76.6954154, 35.72425],
          [76.689875, 35.750079],
          [76.5872923, 35.7743115],
          [76.5613095, 35.8219091],
          [76.5877675, 35.8425799],
          [76.5730285, 35.8713036],
          [76.5991954, 35.9004067],
          [76.5675631, 35.9257121],
          [76.5438905, 35.9242689],
          [76.5466168, 35.9024388],
          [76.5168029, 35.8816427],
          [76.4699244, 35.8908417],
          [76.4283138, 35.8527423],
          [76.3646559, 35.8644421],
          [76.350838, 35.8555877],
          [76.3599677, 35.8275871],
          [76.2260962, 35.8428107],
          [76.218419, 35.8272751],
          [76.1657824, 35.8223759],
          [76.1407135, 35.8487182],
          [76.1604598, 35.9186718],
          [76.1066246, 35.9760708],
          [76.1022408, 36.0152833],
          [75.9990566, 36.0176286],
          [75.9427168, 36.0707543],
          [75.9547282, 36.0795382],
          [75.933003, 36.1364653],
          [76.0136733, 36.1717234],
          [76.0060118, 36.2331457],
          [76.0615992, 36.2267668],
          [76.0174559, 36.301079],
          [75.9948572, 36.3081912],
          [75.9849437, 36.3510943],
          [76.0357695, 36.4080529],
          [75.9872146, 36.5079261],
          [75.9232812, 36.5654323],
          [75.9449366, 36.6027607],
          [75.8027413, 36.7099764],
          [75.6744543, 36.7657929],
          [75.5344324, 36.7719056],
          [75.5340414, 36.7211479],
          [75.4994191, 36.7388603],
          [75.4703, 36.7159619],
          [75.4534721, 36.7228514],
          [75.4195125, 36.7727067],
          [75.4321542, 36.8319946],
          [75.4233395, 36.8872366],
          [75.3868726, 36.9044186],
          [75.3881395, 36.9300081],
          [75.4107695, 36.9458332],
          [75.4018366, 36.9549707],
          [75.3756497, 36.9465063],
          [75.29367, 36.9759285],
          [75.2356946, 36.9582736],
          [75.1598052, 36.9894218],
          [75.1678286, 37.0108589],
          [75.1418187, 37.0278173],
          [75.1145659, 37.006778],
          [75.060446, 37.002078],
          [75.0292459, 37.01624],
          [74.992298, 36.990983],
          [74.9169698, 36.978512],
          [74.9324329, 36.946348],
          [74.9060629, 36.92974],
          [74.8831105, 36.9360494],
          [74.8812664, 36.9602828],
          [74.8390148, 37.0158332],
          [74.8436357, 37.055752],
          [74.80157, 37.051994],
          [74.7888851, 37.027976],
          [74.7402126, 37.0192002],
          [74.6948392, 37.091675],
          [74.6732746, 37.0705743],
          [74.622406, 37.059823],
          [74.6151541, 37.041754],
          [74.51893, 37.017367],
          [74.543927, 36.972763],
          [74.534055, 36.957221],
          [74.426558, 37.01115],
          [74.415585, 36.975017],
          [74.347112, 36.961087],
          [74.294881, 36.912415],
          [74.239721, 36.894784],
          [74.175927, 36.916518],
          [74.119982, 36.837992],
          [73.987346, 36.831453],
          [73.932234, 36.87474],
          [73.892667, 36.878157],
          [73.90761, 36.898855],
          [73.89062, 36.912967],
          [73.843619, 36.925977],
          [73.815059, 36.890824],
          [73.75286, 36.912156],
          [73.654106, 36.908791],
          [73.7050407, 36.8351307],
          [73.7641609, 36.8146586],
          [73.7955648, 36.8196105],
          [73.8002041, 36.794943],
          [73.8482616, 36.7917994],
          [73.8818066, 36.7692193],
          [73.8896576, 36.7542576],
          [73.8762158, 36.7359564],
          [73.8889439, 36.725088],
          [73.8741936, 36.700867],
          [73.714557, 36.7145995],
          [73.6900524, 36.6907567],
          [73.5948891, 36.6948582],
          [73.579544, 36.7243253],
          [73.524944, 36.7135506],
          [73.5178067, 36.7261368],
          [73.5000826, 36.7134552],
          [73.4653479, 36.7368144],
          [73.4435793, 36.7211788],
          [73.3624525, 36.7392929],
          [73.3082094, 36.7030605],
          [73.1739101, 36.7265182],
          [73.1086042, 36.6856057],
          [73.0717284, 36.6825531],
          [73.072799, 36.625294],
          [73.0969467, 36.6067712],
          [73.0764866, 36.5713362],
          [73.0565023, 36.5655084],
          [73.0488892, 36.5296721],
          [72.9798958, 36.5123692],
          [72.9806095, 36.4579498],
          [72.8984121, 36.4556536],
          [72.8785468, 36.4385255],
          [72.8746213, 36.3871187],
          [72.854637, 36.3643241],
          [72.8229952, 36.3591513],
          [72.8018213, 36.3283948],
          [72.686357, 36.273277],
          [72.6751153, 36.2530984],
          [72.6095941, 36.2692211],
          [72.5781644, 36.2515794],
          [72.5363219, 36.1728928],
          [72.5582942, 36.1354829],
          [72.5243213, 36.1087256],
          [72.5186779, 36.0783476],
          [72.5314648, 36.0525143],
          [72.5863037, 36.0241244],
          [72.5069052, 35.9192462],
          [72.5058342, 35.9183553]
        ]
      ]
    ]
  }
}
